QIANFAN-17              
1 60395U 24140S   25301.62844934  .00000046  00000+0  52028-4 0  9995
2 60395  88.9743 304.1080 0014338 344.0423  16.0274 13.50970645 62041
QIANFAN-18              
1 60396U 24140T   25301.60785060  .00000029  00000+0  26454-4 0  9993
2 60396  88.9735 303.6469 0013102 326.1031  33.9281 13.50970749 61435
QIANFAN-19              
1 61552U 24185A   25301.58590522  .00000830  00000+0  42799-3 0  9990
2 61552  88.9786  83.1088 0009069  91.3313 268.8913 14.14222242 63289
QIANFAN-20              
1 61553U 24185B   25301.58584106  .00000616  00000+0  34928-3 0  9999
2 61553  88.9784  83.3872 0007589 120.5966 239.5967 14.08770291 63138
QIANFAN-21              
1 61554U 24185C   25301.59194602  .00001032  00000+0  45603-3 0  9994
2 61554  88.9702  82.2609 0011968 142.2547 217.9486 14.22509817 63559
QIANFAN-22              
1 61555U 24185D   25301.60550408  .00000231  00000+0  18822-3 0  9990
2 61555  88.9768  84.1853 0008230 125.3108 234.8834 13.86278089 62688
QIANFAN-23              
1 61556U 24185E   25301.62494792  .00000918  00000+0  45652-3 0  9999
2 61556  88.9778  82.9352 0009867 100.4694 259.7606 14.16220919 63363
QIANFAN-24              
1 61557U 24185F   25301.63278277  .00000834  00000+0  35877-3 0  9994
2 61557  88.9760  82.4131 0011613  87.2648 272.9873 14.23716074 63608
